[{"OBJECT_NAME":"STARLINK-11541 [DTC]","OBJECT_ID":"2025-032L","EPOCH":"2026-03-09T16:02:20.869440","MEAN_MOTION":15.70844825,"ECCENTRICITY":0.00014375,"INCLINATION":43,"RA_OF_ASC_NODE":195.1782,"ARG_OF_PERICENTER":268.8467,"MEAN_ANOMALY":91.2236,"EPHEMERIS_TYPE":0,"CLASSIFICATION_TYPE":"U","NORAD_CAT_ID":63015,"ELEMENT_SET_NO":999,"REV_AT_EPOCH":6222,"BSTAR":0.00092646908,"MEAN_MOTION_DOT":0.00120187,"MEAN_MOTION_DDOT":0},{"OBJECT_NAME":"ISS OBJECT XT","OBJECT_ID":"1998-067XT","EPOCH":"2026-03-09T23:09:29.137248","MEAN_MOTION":15.69333449,"ECCENTRICITY":0.00047012,"INCLINATION":51.6253,"RA_OF_ASC_NODE":64.2319,"ARG_OF_PERICENTER":78.1098,"MEAN_ANOMALY":282.0426,"EPHEMERIS_TYPE":0,"CLASSIFICATION_TYPE":"U","NORAD_CAT_ID":66907,"ELEMENT_SET_NO":999,"REV_AT_EPOCH":1522,"BSTAR":0.0013746382,"MEAN_MOTION_DOT":0.00167047,"MEAN_MOTION_DDOT":0}]
